{"type": "FeatureCollection", "features": [ {"type": "Feature", "properties": {"norad_id": 29750, "name": "FENGYUN 1C DEB", "group": "fengyun-1c-debris", "lat": 74.12888600253834, "lon": -2.704492075499463, "alt_km": 878.8348488271322, "timestamp": "2025-12-27T09:28:56.747364+00:00", "meta": {"OBJECT_NAME": "FENGYUN 1C DEB", "OBJECT_ID": "1999-025AQ", "EPOCH": "2025-12-26T20:20:49.587360", "MEAN_MOTION": 14.09656411, "ECCENTRICITY": 0.00351037, "INCLINATION": 98.7532, "RA_OF_ASC_NODE": 29.5765, "ARG_OF_PERICENTER": 260.4469, "MEAN_ANOMALY": 280.3781, "EPHEMERIS_TYPE": 0, "CLASSIFICATION_TYPE": "U", "NORAD_CAT_ID": 29750, "ELEMENT_SET_NO": 999, "REV_AT_EPOCH": 97272, "BSTAR": 0.00028831071, "MEAN_MOTION_DOT": 4.65e-06, "MEAN_MOTION_DDOT": 0}, "tle": {"line1": "1 29750U 99025AQ  25360.84779615  .00000465  00000+0  28831-3 0  9990", "line2": "2 29750  98.7532  29.5765 0035103 260.4469 280.3781 14.09656411972729"}}, "geometry": {"type": "Point", "coordinates": [-2.704492075499463, 74.12888600253834]}}, {"type": "Feature", "properties": {"norad_id": 29751, "name": "FENGYUN 1C DEB", "group": "fengyun-1c-debris", "lat": -50.018129429857446, "lon": -161.48003343154275, "alt_km": 864.4903442905388, "timestamp": "2025-12-27T09:28:56.747374+00:00", "meta": {"OBJECT_NAME": "FENGYUN 1C DEB", "OBJECT_ID": "1999-025AR", "EPOCH": "2025-12-26T00:38:10.903776", "MEAN_MOTION": 14.23639457, "ECCENTRICITY": 0.00901772, "INCLINATION": 98.5402, "RA_OF_ASC_NODE": 27.5139, "ARG_OF_PERICENTER": 100.9291, "MEAN_ANOMALY": 318.8722, "EPHEMERIS_TYPE": 0, "CLASSIFICATION_TYPE": "U", "NORAD_CAT_ID": 29751, "ELEMENT_SET_NO": 999, "REV_AT_EPOCH": 98262, "BSTAR": 0.00015425778, "MEAN_MOTION_DOT": 3.25e-06, "MEAN_MOTION_DDOT": 0}, "tle": {"line1": "1 29751U 99025AR  25360.02651509  .00000325  00000+0  15426-3 0  9993", "line2": "2 29751  98.5402  27.5139 0090177 100.9291 318.8722 14.23639457982629"}}, "geometry": {"type": "Point", "coordinates": [-161.48003343154275, -50.018129429857446]}}, {"type": "Feature", "properties": {"norad_id": 29754, "name": "FENGYUN 1C DEB", "group": "fengyun-1c-debris", "lat": 49.9484590070134, "lon": -65.10409022590729, "alt_km": 813.7690209455714, "timestamp": "2025-12-27T09:28:56.747384+00:00", "meta": {"OBJECT_NAME": "FENGYUN 1C DEB", "OBJECT_ID": "1999-025AU", "EPOCH": "2025-12-27T01:15:39.067200", "MEAN_MOTION": 14.19205735, "ECCENTRICITY": 0.0036676, "INCLINATION": 98.8842, "RA_OF_ASC_NODE": 103.8293, "ARG_OF_PERICENTER": 198.8892, "MEAN_ANOMALY": 341.412, "EPHEMERIS_TYPE": 0, "CLASSIFICATION_TYPE": "U", "NORAD_CAT_ID": 29754, "ELEMENT_SET_NO": 999, "REV_AT_EPOCH": 97557, "BSTAR": 0.0010702, "MEAN_MOTION_DOT": 2.213e-05, "MEAN_MOTION_DDOT": 0}, "tle": {"line1": "1 29754U 99025AU  25361.05253550  .00002213  00000+0  10702-2 0  9993", "line2": "2 29754  98.8842 103.8293 0036676 198.8892 341.4120 14.19205735975572"}}, "geometry": {"type": "Point", "coordinates": [-65.10409022590729, 49.9484590070134]}}, {"type": "Feature", "properties": {"norad_id": 29758, "name": "FENGYUN 1C DEB", "group": "fengyun-1c-debris", "lat": 15.572574370844544, "lon": -59.87910940127639, "alt_km": 757.7912922449996, "timestamp": "2025-12-27T09:28:56.747394+00:00", "meta": {"OBJECT_NAME": "FENGYUN 1C DEB", "OBJECT_ID": "1999-025AY", "EPOCH": "2025-12-26T06:20:56.562720", "MEAN_MOTION": 14.41189417, "ECCENTRICITY": 0.0022483, "INCLINATION": 98.8547, "RA_OF_ASC_NODE": 116.4603, "ARG_OF_PERICENTER": 266.8394, "MEAN_ANOMALY": 155.2042, "EPHEMERIS_TYPE": 0, "CLASSIFICATION_TYPE": "U", "NORAD_CAT_ID": 29758, "ELEMENT_SET_NO": 999, "REV_AT_EPOCH": 97866, "BSTAR": 0.0025928, "MEAN_MOTION_DOT": 8.353e-05, "MEAN_MOTION_DDOT": 0}, "tle": {"line1": "1 29758U 99025AY  25360.26454355  .00008353  00000+0  25928-2 0  9992", "line2": "2 29758  98.8547 116.4603 0022483 266.8394 155.2042 14.41189417978667"}}, "geometry": {"type": "Point", "coordinates": [-59.87910940127639, 15.572574370844544]}}, {"type": "Feature", "properties": {"norad_id": 29760, "name": "FENGYUN 1C DEB", "group": "fengyun-1c-debris", "lat": -40.780735239875334, "lon": 10.788307887298807, "alt_km": 966.2870771552625, "timestamp": "2025-12-27T09:28:56.747405+00:00", "meta": {"OBJECT_NAME": "FENGYUN 1C DEB", "OBJECT_ID": "1999-025BA", "EPOCH": "2025-12-26T06:24:02.042784", "MEAN_MOTION": 14.08297348, "ECCENTRICITY": 0.013141, "INCLINATION": 98.7625, "RA_OF_ASC_NODE": 2.0468, "ARG_OF_PERICENTER": 135.5008, "MEAN_ANOMALY": 225.6806, "EPHEMERIS_TYPE": 0, "CLASSIFICATION_TYPE": "U", "NORAD_CAT_ID": 29760, "ELEMENT_SET_NO": 999, "REV_AT_EPOCH": 97283, "BSTAR": 7.6621e-05, "MEAN_MOTION_DOT": 1e-06, "MEAN_MOTION_DDOT": 0}, "tle": {"line1": "1 29760U 99025BA  25360.26669031  .00000100  00000+0  76621-4 0  9994", "line2": "2 29760  98.7625   2.0468 0131410 135.5008 225.6806 14.08297348972839"}}, "geometry": {"type": "Point", "coordinates": [10.788307887298807, -40.780735239875334]}}, {"type": "Feature", "properties": {"norad_id": 29762, "name": "FENGYUN 1C DEB", "group": "fengyun-1c-debris", "lat": -40.12615115752311, "lon": -8.875030147607458, "alt_km": 691.494797396399, "timestamp": "2025-12-27T09:28:56.747416+00:00", "meta": {"OBJECT_NAME": "FENGYUN 1C DEB", "OBJECT_ID": "1999-025BC", "EPOCH": "2025-12-26T22:06:32.887008", "MEAN_MOTION": 14.2261251, "ECCENTRICITY": 0.0203305, "INCLINATION": 98.5808, "RA_OF_ASC_NODE": 343.3517, "ARG_OF_PERICENTER": 294.2988, "MEAN_ANOMALY": 118.5039, "EPHEMERIS_TYPE": 0, "CLASSIFICATION_TYPE": "U", "NORAD_CAT_ID": 29762, "ELEMENT_SET_NO": 999, "REV_AT_EPOCH": 98150, "BSTAR": 0.00040889, "MEAN_MOTION_DOT": 1.081e-05, "MEAN_MOTION_DDOT": 0}, "tle": {"line1": "1 29762U 99025BC  25360.92121397  .00001081  00000+0  40889-3 0  9992", "line2": "2 29762  98.5808 343.3517 0203305 294.2988 118.5039 14.22612510981501"}}, "geometry": {"type": "Point", "coordinates": [-8.875030147607458, -40.12615115752311]}}, {"type": "Feature", "properties": {"norad_id": 29763, "name": "FENGYUN 1C DEB", "group": "fengyun-1c-debris", "lat": 51.11201907515364, "lon": 171.39736734314653, "alt_km": 770.7947270916757, "timestamp": "2025-12-27T09:28:56.747426+00:00", "meta": {"OBJECT_NAME": "FENGYUN 1C DEB", "OBJECT_ID": "1999-025BD", "EPOCH": "2025-12-26T22:56:51.632160", "MEAN_MOTION": 14.07885982, "ECCENTRICITY": 0.0128067, "INCLINATION": 98.7629, "RA_OF_ASC_NODE": 339.9463, "ARG_OF_PERICENTER": 140.4862, "MEAN_ANOMALY": 284.2488, "EPHEMERIS_TYPE": 0, "CLASSIFICATION_TYPE": "U", "NORAD_CAT_ID": 29763, "ELEMENT_SET_NO": 999, "REV_AT_EPOCH": 97250, "BSTAR": 0.00029525, "MEAN_MOTION_DOT": 4.98e-06, "MEAN_MOTION_DDOT": 0}, "tle": {"line1": "1 29763U 99025BD  25360.95615315  .00000498  00000+0  29525-3 0  9999", "line2": "2 29763  98.7629 339.9463 0128067 140.4862 284.2488 14.07885982972507"}}, "geometry": {"type": "Point", "coordinates": [171.39736734314653, 51.11201907515364]}}, {"type": "Feature", "properties": {"norad_id": 29765, "name": "FENGYUN 1C DEB", "group": "fengyun-1c-debris", "lat": 67.87683996604541, "lon": -3.3563817475299262, "alt_km": 838.0262835026679, "timestamp": "2025-12-27T09:28:56.747437+00:00", "meta": {"OBJECT_NAME": "FENGYUN 1C DEB", "OBJECT_ID": "1999-025BF", "EPOCH": "2025-12-26T23:10:49.256832", "MEAN_MOTION": 14.02151821, "ECCENTRICITY": 0.0060069, "INCLINATION": 98.8287, "RA_OF_ASC_NODE": 18.7045, "ARG_OF_PERICENTER": 53.5302, "MEAN_ANOMALY": 10.3722, "EPHEMERIS_TYPE": 0, "CLASSIFICATION_TYPE": "U", "NORAD_CAT_ID": 29765, "ELEMENT_SET_NO": 999, "REV_AT_EPOCH": 96950, "BSTAR": -5.9117e-05, "MEAN_MOTION_DOT": -1.34e-06, "MEAN_MOTION_DDOT": 0}, "tle": {"line1": "1 29765U 99025BF  25360.96584788 -.00000134  00000+0 -59117-4 0  9991", "line2": "2 29765  98.8287  18.7045 0060069  53.5302  10.3722 14.02151821969506"}}, "geometry": {"type": "Point", "coordinates": [-3.3563817475299262, 67.87683996604541]}}, {"type": "Feature", "properties": {"norad_id": 29766, "name": "FENGYUN 1C DEB", "group": "fengyun-1c-debris", "lat": -46.59351685292855, "lon": -40.47203314952136, "alt_km": 865.2522722799331, "timestamp": "2025-12-27T09:28:56.747448+00:00", "meta": {"OBJECT_NAME": "FENGYUN 1C DEB", "OBJECT_ID": "1999-025BG", "EPOCH": "2025-12-27T02:55:55.462080", "MEAN_MOTION": 13.9710041, "ECCENTRICITY": 0.0145479, "INCLINATION": 98.6868, "RA_OF_ASC_NODE": 309.9684, "ARG_OF_PERICENTER": 248.1109, "MEAN_ANOMALY": 131.1942, "EPHEMERIS_TYPE": 0, "CLASSIFICATION_TYPE": "U", "NORAD_CAT_ID": 29766, "ELEMENT_SET_NO": 999, "REV_AT_EPOCH": 96005, "BSTAR": 0.0011441, "MEAN_MOTION_DOT": 1.706e-05, "MEAN_MOTION_DDOT": 0}, "tle": {"line1": "1 29766U 99025BG  25361.12216970  .00001706  00000+0  11441-2 0  9996", "line2": "2 29766  98.6868 309.9684 0145479 248.1109 131.1942 13.97100410960058"}}, "geometry": {"type": "Point", "coordinates": [-40.47203314952136, -46.59351685292855]}}, {"type": "Feature", "properties": {"norad_id": 29767, "name": "FENGYUN 1C DEB", "group": "fengyun-1c-debris", "lat": 2.983653614168786, "lon": 149.10919440359976, "alt_km": 1105.5766533867973, "timestamp": "2025-12-27T09:28:56.747458+00:00", "meta": {"OBJECT_NAME": "FENGYUN 1C DEB", "OBJECT_ID": "1999-025BH", "EPOCH": "2025-12-26T20:48:49.834080", "MEAN_MOTION": 14.03500988, "ECCENTRICITY": 0.0332558, "INCLINATION": 98.1994, "RA_OF_ASC_NODE": 328.2015, "ARG_OF_PERICENTER": 21.151, "MEAN_ANOMALY": 8.6506, "EPHEMERIS_TYPE": 0, "CLASSIFICATION_TYPE": "U", "NORAD_CAT_ID": 29767, "ELEMENT_SET_NO": 999, "REV_AT_EPOCH": 95798, "BSTAR": 0.0032023, "MEAN_MOTION_DOT": 8.171e-05, "MEAN_MOTION_DDOT": 0}, "tle": {"line1": "1 29767U 99025BH  25360.86724345  .00008171  00000+0  32023-2 0  9999", "line2": "2 29767  98.1994 328.2015 0332558  21.1510   8.6506 14.03500988957981"}}, "geometry": {"type": "Point", "coordinates": [149.10919440359976, 2.983653614168786]}}]}